YAOGAN-35 01A           
1 49390U 21101A   26068.78009532  .00012075  00000+0  47335-3 0  9995
2 49390  34.9903 183.8731 0005688 189.0601 171.0012 15.24952145241689
STARLINK-34053          
1 63837U 25093B   26068.37935373  .00023987  00000+0  87850-3 0  9997
2 63837  42.9993  79.7427 0001159 279.8143  80.2578 15.27575177 47863
