[{"OBJECT_NAME":"YAOGAN-35 01A","OBJECT_ID":"2021-101A","EPOCH":"2026-03-09T18:43:20.235648","MEAN_MOTION":15.24952145,"ECCENTRICITY":0.00056881,"INCLINATION":34.9903,"RA_OF_ASC_NODE":183.8731,"ARG_OF_PERICENTER":189.0601,"MEAN_ANOMALY":171.0012,"EPHEMERIS_TYPE":0,"CLASSIFICATION_TYPE":"U","NORAD_CAT_ID":49390,"ELEMENT_SET_NO":999,"REV_AT_EPOCH":24168,"BSTAR":0.00047335489,"MEAN_MOTION_DOT":0.00012075,"MEAN_MOTION_DDOT":0},{"OBJECT_NAME":"STARLINK-34053","OBJECT_ID":"2025-093B","EPOCH":"2026-03-09T09:06:16.162272","MEAN_MOTION":15.27575177,"ECCENTRICITY":0.00011592,"INCLINATION":42.9993,"RA_OF_ASC_NODE":79.7427,"ARG_OF_PERICENTER":279.8143,"MEAN_ANOMALY":80.2578,"EPHEMERIS_TYPE":0,"CLASSIFICATION_TYPE":"U","NORAD_CAT_ID":63837,"ELEMENT_SET_NO":999,"REV_AT_EPOCH":4786,"BSTAR":0.00087849569,"MEAN_MOTION_DOT":0.00023987,"MEAN_MOTION_DDOT":0}]
